{
    "links": {
        "self": "http://www.neowsapp.com/rest/v1/neo/3651165?api_key=iIulBulltgU6a56xZRHN4H3l9WmuAYTsLGpBGhQ2"
    },
    "id": "3651165",
    "neo_reference_id": "3651165",
    "name": "(2013 TM135)",
    "designation": "2013 TM135",
    "nasa_jpl_url": "http://ssd.jpl.nasa.gov/sbdb.cgi?sstr=3651165",
    "absolute_magnitude_h": 26.1,
    "estimated_diameter": {
        "kilometers": {
            "estimated_diameter_min": 0.0160160338,
            "estimated_diameter_max": 0.0358129403
        },
        "meters": {
            "estimated_diameter_min": 16.0160337979,
            "estimated_diameter_max": 35.8129403019
        },
        "miles": {
            "estimated_diameter_min": 0.0099518989,
            "estimated_diameter_max": 0.0222531225
        },
        "feet": {
            "estimated_diameter_min": 52.5460443254,
            "estimated_diameter_max": 117.4965270602
        }
    },
    "is_potentially_hazardous_asteroid": false,
    "close_approach_data": [
        {
            "close_approach_date": "2013-10-10",
            "close_approach_date_full": "2013-Oct-10 10:15",
            "epoch_date_close_approach": 1381400100000,
            "relative_velocity": {
                "kilometers_per_second": "6.7944534251",
                "kilometers_per_hour": "24460.0323304143",
                "miles_per_hour": "15198.5128666399"
            },
            "miss_distance": {
                "astronomical": "0.0648972733",
                "lunar": "25.2450393137",
                "kilometers": "9708493.854487871",
                "miles": "6032578.3468037798"
            },
            "orbiting_body": "Earth"
        }
    ],
    "orbital_data": {
        "orbit_id": "6",
        "orbit_determination_date": "2017-04-06 08:44:10",
        "first_observation_date": "2013-10-12",
        "last_observation_date": "2013-10-16",
        "data_arc_in_days": 4,
        "observations_used": 24,
        "orbit_uncertainty": "8",
        "minimum_orbit_intersection": ".0648976",
        "jupiter_tisserand_invariant": "3.240",
        "epoch_osculation": "2456578.5",
        "eccentricity": ".568676094948261",
        "semi_major_axis": "2.46460965734038",
        "inclination": "4.222571228305548",
        "ascending_node_longitude": "21.48742500152951",
        "orbital_period": "1413.255374441727",
        "perihelion_distance": "1.063045061832281",
        "perihelion_argument": "357.0780907794561",
        "aphelion_distance": "3.866174252848479",
        "perihelion_time": "2456577.211445465556",
        "mean_anomaly": ".3282348263370903",
        "mean_motion": ".2547310319921545",
        "equinox": "J2000",
        "orbit_class": {
            "orbit_class_type": "AMO",
            "orbit_class_description": "Near-Earth asteroid orbits similar to that of 1221 Amor",
            "orbit_class_range": "1.017 AU < q (perihelion) < 1.3 AU"
        }
    },
    "is_sentry_object": false
}